     2.100          NAVIGATION                              RINEX VERSION / TYPE
fic2rin                                 04/04/2010 00:19:03 PGM / RUN BY / DATE
                                                            END OF HEADER
23 10  4  3 12  0  0.0  .375430565327D-03 -.113686837722D-11  .000000000000D+00
     .770000000000D+02 -.250000000000D+01  .436875340469D-08 -.146893312150D+01
    -.247731804848D-06  .646342150867D-02  .264309346676D-05  .515370746231D+04
     .561600000000D+06 -.502914190292D-07  .247177107786D+01 -.651925802231D-07
     .968304746671D+00  .332562500000D+03  .300252428602D+01 -.820855620503D-08
    -.510735559900D-10  .100000000000D+01  .157700000000D+04  .000000000000D+00
     .240000000000D+01  .000000000000D+00 -.200234353542D-07  .770000000000D+02
     .554406000000D+06  .400000000000D+01
24 10  4  3 12  0  0.0  .276013277471D-03  .329691829393D-11  .000000000000D+00
     .610000000000D+02  .252500000000D+02  .484448750664D-08  .193820581199D+00
     .130757689476D-05  .575510261115D-02  .100377947092D-04  .515488862419D+04
     .561600000000D+06  .279396772385D-07  .420128071541D+00 -.931322574615D-07
     .949801485239D+00  .183000000000D+03 -.476881905280D+00 -.808569394447D-08
    -.380372986919D-09  .100000000000D+01  .157700000000D+04  .000000000000D+00
     .240000000000D+01  .000000000000D+00 -.139698386192D-08  .610000000000D+02
     .554406000000D+06  .400000000000D+01
26 10  4  3 12  0  0.0 -.350377522409D-04 -.432009983342D-11  .000000000000D+00
     .160000000000D+02 -.996875000000D+01  .391159150492D-08 -.299592759488D+01
    -.569969415665D-06  .194202678977D-01  .200234353542D-05  .515234461403D+04
     .561600000000D+06  .152736902237D-06  .252801065201D+01 -.203028321266D-06
     .990950562006D+00  .357312500000D+03  .107481041277D+01 -.780139638805D-08
    -.835749098019D-10  .100000000000D+01  .157700000000D+04  .000000000000D+00
     .240000000000D+01  .000000000000D+00 -.605359673500D-08  .160000000000D+02
     .554406000000D+06  .400000000000D+01
27 10  4  3 12  0  0.0  .139782205224D-03  .329691829393D-11  .000000000000D+00
     .550000000000D+02 -.937812500000D+02  .397123684653D-08 -.724820779672D+00
    -.482797622681D-05  .215913356515D-01  .808015465736D-05  .515365069962D+04
     .561600000000D+06 -.266358256340D-06 -.282635115040D+01  .188127160072D-06
     .978154236164D+00  .240531250000D+03 -.143957055187D+01 -.821784230612D-08
     .112147528538D-09  .100000000000D+01  .157700000000D+04  .000000000000D+00
     .340000000000D+01  .000000000000D+00 -.419095158577D-08  .550000000000D+02
     .554406000000D+06  .400000000000D+01
28 10  4  3 12  0  0.0 -.192699953914D-04  .795807864051D-12  .000000000000D+00
     .100000000000D+03 -.132187500000D+02  .440625496678D-08  .333930391370D+00
    -.733882188797D-06  .159332497278D-01  .889413058758D-05  .515366531181D+04
     .561600000000D+06 -.309199094772D-06 -.169136329669D+01  .106170773506D-06
     .969381704536D+00  .216000000000D+03 -.196182746683D+01 -.810248035797D-08
     .457876215239D-09  .100000000000D+01  .157700000000D+04  .000000000000D+00
     .340000000000D+01  .000000000000D+00 -.107102096081D-07  .100000000000D+03
     .554406000000D+06  .400000000000D+01
29 10  4  3 12  0  0.0  .109748914838D-03  .272848410532D-11  .000000000000D+00
     .870000000000D+02 -.199062500000D+02  .493306262472D-08  .247273696367D+01
    -.117160379887D-05  .301593646873D-02  .643916428089D-05  .515375860596D+04
     .561600000000D+06  .726431608200D-07 -.647502770861D+00 -.298023223877D-07
     .960436302804D+00  .257281250000D+03 -.131098426444D+01 -.805176395972D-08
    -.350014579512D-10  .100000000000D+01  .157700000000D+04  .000000000000D+00
     .240000000000D+01  .000000000000D+00 -.884756445885D-08  .870000000000D+02
     .554406000000D+06  .400000000000D+01
30 10  4  3 12  0  0.0  .230355653912D-03  .341060513165D-11  .000000000000D+00
     .660000000000D+02 -.317500000000D+02  .464090759814D-08  .803999920178D+00
    -.172108411789D-05  .120271038031D-01  .887364149094D-05  .515375929070D+04
     .561600000000D+06 -.171363353729D-06 -.176926823701D+01  .167638063431D-07
     .955186662239D+00  .206062500000D+03  .147592513846D+01 -.823677166603D-08
     .503235247482D-09  .100000000000D+01  .157700000000D+04  .000000000000D+00
     .240000000000D+01  .000000000000D+00 -.791624188423D-08  .660000000000D+02
     .554406000000D+06  .400000000000D+01
31 10  4  3 12  0  0.0 -.441707670689D-04  .204636307899D-11  .000000000000D+00
     .103000000000D+03 -.864062500000D+02  .391302013585D-08 -.312662421332D+01
    -.440329313278D-05  .751707109157D-02  .732392072678D-05  .515366074181D+04
     .561600000000D+06  .782310962677D-07 -.277057228427D+01  .931322574615D-08
     .976623179750D+00  .247156250000D+03 -.106892223041D+01 -.767674833881D-08
    -.185722021782D-10  .100000000000D+01  .157700000000D+04  .000000000000D+00
     .240000000000D+01  .000000000000D+00 -.130385160446D-07  .103000000000D+03
     .554406000000D+06  .400000000000D+01
32 10  4  3 12  0  0.0  .598705373704D-04 -.864019966684D-11  .000000000000D+00
     .117000000000D+03  .105437500000D+03  .433375194674D-08 -.229937053001D+01
     .554509460926D-05  .127038968494D-01  .624172389507D-05  .515377453995D+04
     .561600000000D+06 -.111758708954D-07  .150194419272D+01  .253319740295D-06
     .959591688514D+00  .257468750000D+03 -.998350121610D+00 -.790675791963D-08
    -.892894335490D-11  .100000000000D+01  .157700000000D+04  .000000000000D+00
     .240000000000D+01  .000000000000D+00 -.325962901115D-08  .117000000000D+03
     .554406000000D+06  .400000000000D+01
13 10  4  3 11 59 44.0  .305620022118D-03 -.227373675443D-12  .000000000000D+00
     .100000000000D+01 -.109687500000D+02  .388159025524D-08 -.574057284682D+00
    -.607222318649D-06  .434342073277D-02  .279024243355D-05  .515356524658D+04
     .561584000000D+06 -.353902578354D-07  .253120417292D+01  .707805156708D-07
     .993204057107D+00  .343593750000D+03  .165356197482D+01 -.801426239763D-08
    -.116790579082D-09  .100000000000D+01  .157700000000D+04  .000000000000D+00
     .240000000000D+01  .000000000000D+00 -.111758708954D-07  .100000000000D+01
     .555576000000D+06  .400000000000D+01
19 10  4  3 11 59 44.0 -.256127677858D-04 -.250111042988D-11  .000000000000D+00
     .700000000000D+01 -.166250000000D+02  .500092259421D-08 -.931979453554D+00
    -.100396573544D-05  .631773821078D-02  .637769699097D-05  .515370916748D+04
     .561584000000D+06  .298023223877D-07 -.600565121822D+00 -.800937414169D-07
     .957794379546D+00  .253718750000D+03 -.173817315252D+00 -.820712757409D-08
     .185722021782D-10  .100000000000D+01  .157700000000D+04  .000000000000D+00
     .240000000000D+01  .000000000000D+00 -.149011611938D-07  .700000000000D+01
     .556656000000D+06  .400000000000D+01
18 10  4  3 11 59 44.0  .594472512603D-04  .250111042988D-11  .000000000000D+00
     .600000000000D+01  .112656250000D+03  .497520723735D-08  .115182705461D+01
     .597536563873D-05  .111010002438D-01  .750087201595D-05  .515368817902D+04
     .561584000000D+06 -.126659870148D-06  .143973493266D+01  .109896063805D-06
     .937829240169D+00  .224468750000D+03 -.234704170227D+01 -.850178270480D-08
    -.127862468842D-09  .100000000000D+01  .157700000000D+04  .000000000000D+00
     .240000000000D+01  .000000000000D+00 -.107102096081D-07  .600000000000D+01
     .556956000000D+06  .400000000000D+01
28 10  4  3 11 59 28.0 -.192653387785D-04  .795807864051D-12  .000000000000D+00
     .100000000000D+01 -.132187500000D+02  .440661212451D-08  .329262873703D+00
    -.733882188797D-06  .159332486801D-01  .889413058758D-05  .515366530991D+04
     .561568000000D+06 -.309199094772D-06 -.169136303190D+01  .106170773506D-06
     .969381701610D+00  .216000000000D+03 -.196182743026D+01 -.810248035797D-08
     .458233372974D-09  .100000000000D+01  .157700000000D+04  .000000000000D+00
     .240000000000D+01  .000000000000D+00 -.107102096081D-07  .100000000000D+01
     .558966000000D+06  .400000000000D+01
12 10  4  3 11 59 44.0 -.131047796458D-03  .443378667114D-11  .000000000000D+00
     .120000000000D+02 -.254687500000D+02  .421946147179D-08 -.304198957480D+01
    -.119954347610D-05  .352688995190D-02  .872649252415D-05  .515372183800D+04
     .561584000000D+06 -.502914190292D-07 -.171652033672D+01  .763684511185D-07
     .969904127211D+00  .212687500000D+03 -.510087758197D+00 -.776032324861D-08
     .597167731576D-09  .100000000000D+01  .157700000000D+04  .000000000000D+00
     .240000000000D+01  .000000000000D+00 -.121071934700D-07  .120000000000D+02
     .560706000000D+06  .400000000000D+01
28 10  4  3 13 59 28.0 -.192597508430D-04  .795807864051D-12  .000000000000D+00
     .160000000000D+02 -.210937500000D+02  .432660879205D-08  .137938937610D+01
    -.115483999252D-05  .159336801153D-01  .887550413609D-05  .515366720772D+04
     .568768000000D+06 -.352039933205D-06 -.169142147109D+01 -.158324837685D-06
     .969384918567D+00  .215468750000D+03 -.196176904081D+01 -.801890544817D-08
     .452876006961D-09  .100000000000D+01  .157700000000D+04  .000000000000D+00
     .240000000000D+01  .000000000000D+00 -.107102096081D-07  .160000000000D+02
     .561606000000D+06  .400000000000D+01
12 10  4  3 13 59 44.0 -.131015665829D-03  .443378667114D-11  .000000000000D+00
     .130000000000D+02 -.223125000000D+02  .419553190360D-08 -.199190879884D+01
    -.109337270260D-05  .352776166983D-02  .933371484280D-05  .515372023773D+04
     .568784000000D+06 -.726431608200D-07 -.171657632991D+01  .428408384323D-07
     .969908331638D+00  .205718750000D+03 -.510018401251D+00 -.778746723641D-08
     .605739517197D-09  .100000000000D+01  .157700000000D+04  .000000000000D+00
     .240000000000D+01  .000000000000D+00 -.121071934700D-07  .130000000000D+02
     .561606000000D+06  .400000000000D+01
